0 FENGYUN 1C DEB
1 30447U 99025AFJ 13281.45315845  .00002201  00000-0  10698-2 0  7734
2 30447 098.9940 329.4051 0104884 319.1863 167.4321 14.16505614346256
0 FENGYUN 1C DEB
1 30447U 99025AFJ 13282.72398006  .00002092  00000-0  10174-2 0  7743
2 30447 098.9946 330.6898 0105067 315.4023 168.0731 14.16517556346436
0 FENGYUN 1C DEB
1 30447U 99025AFJ 13283.77736447  .00002677  00000-0  12957-2 0  7755
2 30447 098.9945 331.7537 0104951 312.4756 139.7056 14.16521227346589
0 FENGYUN 1C DEB
1 30447U 99025AFJ 13286.10040618  .00002776  00000-0  13420-2 0  7771
2 30447 098.9947 334.1015 0105129 305.7528 106.1628 14.16530363346909
0 FENGYUN 1C DEB
1 30447U 99025AFJ 13287.86557324  .00003345  00000-0  16120-2 0  7786
2 30447 098.9945 335.8857 0105280 300.6564 107.7596 14.16540878347152
0 FENGYUN 1C DEB
1 30447U 99025AFJ 13289.13081215  .00003539  00000-0  17037-2 0  7793
2 30447 098.9940 337.1648 0105340 297.0240 079.9657 14.16550681347338
0 FENGYUN 1C DEB
1 30447U 99025AFJ 13290.42217888  .00003401  00000-0  16378-2 0  7801
2 30447 098.9935 338.4700 0105429 293.3027 185.4661 14.16557964347525
0 FENGYUN 1C DEB
1 30447U 99025AFJ 13291.82175559  .00003392  00000-0  16333-2 0  7815
2 30447 098.9931 339.8845 0105577 289.2734 122.8370 14.16565298347711
0 FENGYUN 1C DEB
1 30447U 99025AFJ 13293.09470154  .00003704  00000-0  17808-2 0  7821
2 30447 098.9929 341.1708 0105696 285.6188 134.4568 14.16571893347904
0 FENGYUN 1C DEB
1 30447U 99025AFJ 13294.85923556  .00003720  00000-0  17875-2 0  7838
2 30447 098.9929 342.9540 0105827 280.5629 133.0636 14.16585072348149
